OBJECT_NAME,OBJECT_ID,EPOCH,MEAN_MOTION,ECCENTRICITY,INCLINATION,RA_OF_ASC_NODE,ARG_OF_PERICENTER,MEAN_ANOMALY,EPHEMERIS_TYPE,CLASSIFICATION_TYPE,NORAD_CAT_ID,ELEMENT_SET_NO,REV_AT_EPOCH,BSTAR,MEAN_MOTION_DOT,MEAN_MOTION_DDOT
COSMOS 2058,1990-010A,2026-07-06T06:14:58.313760,15.12129502,.00080884,82.4680,290.5461,287.9523,72.0825,0,U,20465,999,96015,.16723596E-3,.2911E-4,0
SL-14 R/B,1990-010B,2026-07-05T23:37:32.644704,14.83659163,.00181618,82.5026,156.2916,270.1359,89.7775,0,U,20466,999,94602,.50710226E-4,.443E-5,0
SL-14 R/B,1990-018B,2026-07-06T06:01:39.190656,14.82230099,.00175446,82.5221,112.2900,64.2550,296.0473,0,U,20511,999,94014,.53203324E-4,.449E-5,0
HST,1990-037B,2026-07-05T17:20:46.401792,15.30983298,.00018012,28.4737,313.8746,10.5511,349.5122,0,U,20580,999,79141,.25363464E-3,.8052E-4,0
SL-16 R/B,1990-046B,2026-07-06T00:50:06.453888,14.15023249,.00124891,70.9987,49.3648,130.5311,229.6901,0,U,20625,999,86513,-.57696531E-4,-.159E-5,0
COSMOS 2084,1990-055A,2026-07-06T05:58:20.101728,15.06201308,.00070048,62.7907,291.0271,308.9474,51.1002,0,U,20663,999,95417,.16919658E-3,.2291E-4,0
SL-6 R/B(2),1990-055D,2026-07-06T04:44:05.440416,15.04064528,.00437371,62.7808,210.6839,7.7538,352.4228,0,U,20666,999,95601,.14848353E-3,.1899E-4,0
SL-8 R/B,1990-078B,2026-07-06T05:32:46.071456,14.93314289,.03452414,82.9027,144.4252,334.0471,24.3775,0,U,20775,999,82696,.73441909E-3,.25952E-3,0
SL-8 R/B,1991-006B,2026-07-06T06:00:35.693568,13.77508120,.00237808,82.9419,81.8521,64.2995,52.4107,0,U,21088,999,78039,.71376383E-4,.87E-6,0
OKEAN-3,1991-039A,2026-07-06T03:34:56.233344,15.05407484,.00120077,82.5139,221.9928,288.3003,71.6917,0,U,21397,999,88285,.15339251E-3,.223E-4,0
COSMOS 2151,1991-042A,2026-07-06T04:46:43.523904,15.00495275,.00128602,82.4978,329.3321,25.4675,334.7180,0,U,21422,999,88096,.17114938E-3,.2185E-4,0
SL-14 R/B,1991-042B,2026-07-06T06:16:52.704768,14.81914723,.00161946,82.4936,109.0091,206.8110,153.2269,0,U,21423,999,87063,.46317132E-4,.391E-5,0
ERS-1,1991-050A,2026-07-06T01:41:59.135712,14.39528962,.00313348,98.7794,208.2300,209.0829,150.8614,0,U,21574,999,83276,.9481691E-4,.251E-5,0
ARIANE 40 R/B,1991-050F,2026-07-06T02:50:11.094144,14.42968583,.00044231,98.1865,234.7968,80.9407,279.2284,0,U,21610,999,83607,.10502815E-3,.31E-5,0
INTERCOSMOS 25,1991-086A,2026-07-06T04:16:55.477632,12.12227701,.14841428,82.6022,238.3175,221.3877,126.5002,0,U,21819,999,51104,.25839225E-3,.1307E-4,0
SL-8 R/B,1992-008B,2026-07-06T02:33:23.506848,13.75981854,.00351121,82.9262,179.7204,161.5146,267.8722,0,U,21876,999,72570,.13763671E-3,.149E-5,0
SL-8 R/B,1992-020B,2026-07-06T04:41:11.384160,13.75550305,.00284114,82.9294,65.7378,329.5798,144.9645,0,U,21938,999,71742,.17353571E-4,.32E-6,0
USA 81,1992-023A,2026-07-06T03:15:50.842368,14.32403306,.00023658,85.0061,63.0699,69.3436,290.8010,0,U,21949,999,11174,.50435713E-4,.156E-5,0
COSMOS 2219,1992-076A,2026-07-06T05:15:16.467840,14.14110057,.00176656,71.0612,130.2867,11.9192,348.2345,0,U,22219,999,73513,.43984617E-4,.37E-6,0
SL-16 R/B,1992-076B,2026-07-05T18:11:56.728608,14.16874088,.00150192,71.0011,299.6600,274.2908,247.1266,0,U,22220,999,73855,.1916607E-4,-.1E-6,0
COSMOS 2221,1992-080A,2026-07-05T23:51:27.968544,14.96586324,.00150191,82.5036,165.7454,148.7715,211.4403,0,U,22236,999,79848,.15372677E-3,.1779E-4,0
SL-16 R/B,1992-093B,2026-07-06T06:03:38.609280,14.15466559,.00028139,71.0222,115.3681,153.5670,206.5597,0,U,22285,999,72993,.96867273E-4,.142E-5,0
COSMOS 2228,1992-094A,2026-07-06T06:19:18.406272,14.97657444,.00159481,82.5187,123.7709,262.0851,97.8561,0,U,22286,999,79380,.15170029E-3,.1805E-4,0
SL-16 R/B,1993-016B,2026-07-05T19:27:09.587232,14.15312433,.0009126,71.0087,327.0911,154.8517,205.3052,0,U,22566,999,71888,-.94047181E-4,-.231E-5,0
COSMOS 2242,1993-024A,2026-07-05T23:08:29.663808,14.96965318,.00143127,82.5191,153.5778,267.1706,92.7879,0,U,22626,999,79808,.1758547E-3,.205E-4,0
SL-16 R/B,1993-059B,2026-07-06T04:38:54.880800,14.17251180,.00161701,70.9905,121.2228,22.6324,337.5509,0,U,22803,999,69632,.54993889E-4,.63E-6,0
ARIANE 40 R/B,1993-061H,2026-07-06T04:46:00.094080,14.32916037,.00095384,98.4810,253.6601,295.7800,64.2400,0,U,22830,999,71107,.89080537E-4,.2E-5,0
COSMOS 2278,1994-023A,2026-07-06T06:30:42.300288,14.14395190,.00100626,71.0541,286.9969,219.1564,140.8832,0,U,23087,999,66157,-.93421096E-4,-.226E-5,0
SL-16 R/B,1994-023B,2026-07-06T04:39:11.068704,14.15024944,.00016102,70.9977,182.0153,159.6712,200.4475,0,U,23088,999,66285,-.8870327E-4,-.22E-5,0
SL-16 R/B,1994-074B,2026-07-06T02:01:18.069024,14.79519102,.00063732,97.6985,213.0172,182.5546,239.3727,0,U,23343,999,70475,.69246885E-4,.469E-5,0
