COSMOS 2058             
1 20465U 90010A   26187.26039715  .00002911  00000+0  16724-3 0  9999
2 20465  82.4680 290.5461 0008088 287.9523  72.0825 15.12129502960157
SL-14 R/B               
1 20466U 90010B   26186.98440561  .00000443  00000+0  50710-4 0  9995
2 20466  82.5026 156.2916 0018161 270.1359  89.7775 14.83659163946027
SL-14 R/B               
1 20511U 90018B   26187.25114804  .00000449  00000+0  53203-4 0  9999
2 20511  82.5221 112.2900 0017544  64.2550 296.0473 14.82230099940146
HST                     
1 20580U 90037B   26186.72275928  .00008052  00000+0  25363-3 0  9995
2 20580  28.4737 313.8746 0001801  10.5511 349.5122 15.30983298791419
SL-16 R/B               
1 20625U 90046B   26187.03479692 -.00000159  00000+0 -57697-4 0  9992
2 20625  70.9987  49.3648 0012489 130.5311 229.6901 14.15023249865132
COSMOS 2084             
1 20663U 90055A   26187.24884377  .00002291  00000+0  16920-3 0  9997
2 20663  62.7907 291.0271 0007004 308.9474  51.1002 15.06201308954179
SL-6 R/B(2)             
1 20666U 90055D   26187.19728519  .00001899  00000+0  14848-3 0  9999
2 20666  62.7808 210.6839 0043737   7.7538 352.4228 15.04064528956018
SL-8 R/B                
1 20775U 90078B   26187.23108879  .00025952  00000+0  73442-3 0  9992
2 20775  82.9027 144.4252 0345241 334.0471  24.3775 14.93314289826967
SL-8 R/B                
1 21088U 91006B   26187.25041312  .00000087  00000+0  71376-4 0  9999
2 21088  82.9419  81.8521 0023780  64.2995  52.4107 13.77508120780394
OKEAN-3                 
1 21397U 91039A   26187.14926196  .00002230  00000+0  15339-3 0  9996
2 21397  82.5139 221.9928 0012007 288.3003  71.6917 15.05407484882859
COSMOS 2151             
1 21422U 91042A   26187.19911486  .00002185  00000+0  17115-3 0  9993
2 21422  82.4978 329.3321 0012860  25.4675 334.7180 15.00495275880965
SL-14 R/B               
1 21423U 91042B   26187.26172112  .00000391  00000+0  46317-4 0  9991
2 21423  82.4936 109.0091 0016194 206.8110 153.2269 14.81914723870637
ERS-1                   
1 21574U 91050A   26187.07082333  .00000251  00000+0  94817-4 0  9994
2 21574  98.7794 208.2300 0031334 209.0829 150.8614 14.39528962832764
ARIANE 40 R/B           
1 21610U 91050F   26187.11818396  .00000310  00000+0  10503-3 0  9991
2 21610  98.1865 234.7968 0004423  80.9407 279.2284 14.42968583836077
INTERCOSMOS 25          
1 21819U 91086A   26187.17841988  .00001307  00000+0  25839-3 0  9995
2 21819  82.6022 238.3175 1484142 221.3877 126.5002 12.12227701511048
SL-8 R/B                
1 21876U 92008B   26187.10652207  .00000149  00000+0  13764-3 0  9997
2 21876  82.9262 179.7204 0035112 161.5146 267.8722 13.75981854725707
SL-8 R/B                
1 21938U 92020B   26187.19527065  .00000032  00000+0  17354-4 0  9993
2 21938  82.9294  65.7378 0028411 329.5798 144.9645 13.75550305717422
USA 81                  
1 21949U 92023A   26187.13600512  .00000156  00000+0  50436-4 0  9996
2 21949  85.0061  63.0699 0002365  69.3436 290.8010 14.32403306111747
COSMOS 2219             
1 22219U 92076A   26187.21894060  .00000037  00000+0  43985-4 0  9996
2 22219  71.0612 130.2867 0017665  11.9192 348.2345 14.14110057735132
SL-16 R/B               
1 22220U 92076B   26186.75829547 -.00000010  00000+0  19166-4 0  9990
2 22220  71.0011 299.6600 0015019 274.2908 247.1266 14.16874088738553
COSMOS 2221             
1 22236U 92080A   26186.99407371  .00001779  00000+0  15373-3 0  9992
2 22236  82.5036 165.7454 0015019 148.7715 211.4403 14.96586324798481
SL-16 R/B               
1 22285U 92093B   26187.25253020  .00000142  00000+0  96867-4 0  9991
2 22285  71.0222 115.3681 0002813 153.5670 206.5597 14.15466559729931
COSMOS 2228             
1 22286U 92094A   26187.26340748  .00001805  00000+0  15170-3 0  9992
2 22286  82.5187 123.7709 0015948 262.0851  97.8561 14.97657444793807
SL-16 R/B               
1 22566U 93016B   26186.81052763 -.00000231  00000+0 -94047-4 0  9990
2 22566  71.0087 327.0911 0009126 154.8517 205.3052 14.15312433718884
COSMOS 2242             
1 22626U 93024A   26186.96423222  .00002050  00000+0  17585-3 0  9994
2 22626  82.5191 153.5778 0014312 267.1706  92.7879 14.96965318798088
SL-16 R/B               
1 22803U 93059B   26187.19369075  .00000063  00000+0  54994-4 0  9998
2 22803  70.9905 121.2228 0016170  22.6324 337.5509 14.17251180696327
ARIANE 40 R/B           
1 22830U 93061H   26187.19861220  .00000200  00000+0  89081-4 0  9998
2 22830  98.4810 253.6601 0009538 295.7800  64.2400 14.32916037711074
COSMOS 2278             
1 23087U 94023A   26187.27132292 -.00000226  00000+0 -93421-4 0  9994
2 23087  71.0541 286.9969 0010062 219.1564 140.8832 14.14395190661574
SL-16 R/B               
1 23088U 94023B   26187.19387811 -.00000220  00000+0 -88703-4 0  9996
2 23088  70.9977 182.0153 0001610 159.6712 200.4475 14.15024944662854
SL-16 R/B               
1 23343U 94074B   26187.08423691  .00000469  00000+0  69247-4 0  9996
2 23343  97.6985 213.0172 0006373 182.5546 239.3727 14.79519102704752
